{
  "type": "FeatureCollection",
  "properties": {
    "dayNumber": 17,
    "title": "Aosta Valley to Strasbourg via Lake Geneva"
  },
  "features": [
    {
      "type": "Feature",
      "properties": {
        "mode": "drive",
        "fromStopIndex": 0,
        "toStopIndex": 1,
        "fromName": "Courmayeur",
        "toName": "Great St. Bernard Tunnel",
        "waypointNames": [
          "Courmayeur",
          "Aosta",
          "Etroubles",
          "Great St. Bernard Tunnel"
        ]
      },
      "geometry": {
        "type": "LineString",
        "coordinates": [
          [
            6.973238,
            45.783819
          ],
          [
            7.03,
            45.773
          ],
          [
            7.102,
            45.755
          ],
          [
            7.19,
            45.738
          ],
          [
            7.315,
            45.737
          ],
          [
            7.294,
            45.778
          ],
          [
            7.261,
            45.805
          ],
          [
            7.23,
            45.823
          ],
          [
            7.204,
            45.839
          ],
          [
            7.185,
            45.852
          ],
          [
            7.17266,
            45.8645
          ]
        ]
      }
    },
    {
      "type": "Feature",
      "properties": {
        "mode": "drive",
        "fromStopIndex": 1,
        "toStopIndex": 2,
        "fromName": "Great St. Bernard Tunnel",
        "toName": "Montreux",
        "waypointNames": [
          "Great St. Bernard Tunnel",
          "Bourg-Saint-Pierre",
          "Orsières",
          "Martigny",
          "Montreux"
        ]
      },
      "geometry": {
        "type": "LineString",
        "coordinates": [
          [
            7.17266,
            45.8645
          ],
          [
            7.184,
            45.889
          ],
          [
            7.198,
            45.917
          ],
          [
            7.2078,
            45.95
          ],
          [
            7.186,
            45.979
          ],
          [
            7.145,
            46.03
          ],
          [
            7.151,
            46.079
          ],
          [
            7.11,
            46.096
          ],
          [
            7.072,
            46.102
          ],
          [
            7.024,
            46.142
          ],
          [
            6.991,
            46.218
          ],
          [
            6.965,
            46.318
          ],
          [
            6.949,
            46.381
          ],
          [
            6.91068,
            46.431221
          ]
        ]
      }
    },
    {
      "type": "Feature",
      "properties": {
        "mode": "drive",
        "fromStopIndex": 2,
        "toStopIndex": 3,
        "fromName": "Montreux",
        "toName": "Strasbourg",
        "waypointNames": [
          "Montreux",
          "Lausanne",
          "Fribourg",
          "Bern",
          "Basel",
          "Colmar",
          "Strasbourg"
        ]
      },
      "geometry": {
        "type": "LineString",
        "coordinates": [
          [
            6.91068,
            46.431221
          ],
          [
            6.846,
            46.462
          ],
          [
            6.731,
            46.489
          ],
          [
            6.632,
            46.519
          ],
          [
            6.683,
            46.66
          ],
          [
            6.938,
            46.822
          ],
          [
            7.151,
            46.806
          ],
          [
            7.241,
            46.862
          ],
          [
            7.447,
            46.948
          ],
          [
            7.65,
            47.08
          ],
          [
            7.903,
            47.35
          ],
          [
            7.588,
            47.559
          ],
          [
            7.482,
            47.653
          ],
          [
            7.338,
            47.75
          ],
          [
            7.358,
            48.079
          ],
          [
            7.509,
            48.289
          ],
          [
            7.754,
            48.59733
          ]
        ]
      }
    }
  ]
}
