{
  "type": "FeatureCollection",
  "properties": {
    "dayNumber": 1,
    "title": "The Adventure Begins"
  },
  "features": [
    {
      "type": "Feature",
      "properties": {
        "mode": "drive",
        "fromStopIndex": 0,
        "toStopIndex": 1,
        "fromName": "North Fort Worth",
        "toName": "DFW Airport",
        "waypointNames": [
          "North Fort Worth",
          "DFW Airport"
        ],
        "distanceMeters": 36568.2,
        "durationSeconds": 1880.7
      },
      "geometry": {
        "type": "LineString",
        "coordinates": [
          [
            -97.316553,
            32.851395
          ],
          [
            -97.317304,
            32.851402
          ],
          [
            -97.317304,
            32.851305
          ],
          [
            -97.316458,
            32.851295
          ],
          [
            -97.315931,
            32.851289
          ],
          [
            -97.315931,
            32.85139
          ],
          [
            -97.315927,
            32.853366
          ],
          [
            -97.315925,
            32.854278
          ],
          [
            -97.315924,
            32.854876
          ],
          [
            -97.315913,
            32.855479
          ],
          [
            -97.315912,
            32.855571
          ],
          [
            -97.315902,
            32.85616
          ],
          [
            -97.3159,
            32.856256
          ],
          [
            -97.315894,
            32.856618
          ],
          [
            -97.315887,
            32.856996
          ],
          [
            -97.31591,
            32.85741
          ],
          [
            -97.315977,
            32.857675
          ],
          [
            -97.316172,
            32.858167
          ],
          [
            -97.316448,
            32.858513
          ],
          [
            -97.316805,
            32.858924
          ],
          [
            -97.316974,
            32.859172
          ],
          [
            -97.317061,
            32.859428
          ],
          [
            -97.316869,
            32.85948
          ],
          [
            -97.31668,
            32.85948
          ],
          [
            -97.316477,
            32.859481
          ],
          [
            -97.316296,
            32.859481
          ],
          [
            -97.316104,
            32.859482
          ],
          [
            -97.315893,
            32.859483
          ],
          [
            -97.315875,
            32.859908
          ],
          [
            -97.315706,
            32.859909
          ],
          [
            -97.315155,
            32.85991
          ],
          [
            -97.314882,
            32.859967
          ],
          [
            -97.314703,
            32.859277
          ],
          [
            -97.314661,
            32.859096
          ],
          [
            -97.314579,
            32.858698
          ],
          [
            -97.314494,
            32.858621
          ],
          [
            -97.314272,
            32.857951
          ],
          [
            -97.313505,
            32.854707
          ],
          [
            -97.313404,
            32.854152
          ],
          [
            -97.313324,
            32.853574
          ],
          [
            -97.313237,
            32.853479
          ],
          [
            -97.313217,
            32.853272
          ],
          [
            -97.313165,
            32.852779
          ],
          [
            -97.313103,
            32.851862
          ],
          [
            -97.313071,
            32.850664
          ],
          [
            -97.313132,
            32.850419
          ],
          [
            -97.313136,
            32.849829
          ],
          [
            -97.313231,
            32.847539
          ],
          [
            -97.313244,
            32.8463
          ],
          [
            -97.313296,
            32.844767
          ],
          [
            -97.31327,
            32.84456
          ],
          [
            -97.313272,
            32.84449
          ],
          [
            -97.313278,
            32.844305
          ],
          [
            -97.313314,
            32.842305
          ],
          [
            -97.313296,
            32.841882
          ],
          [
            -97.313207,
            32.841443
          ],
          [
            -97.313086,
            32.84108
          ],
          [
            -97.312936,
            32.840791
          ],
          [
            -97.312773,
            32.840564
          ],
          [
            -97.312553,
            32.840296
          ],
          [
            -97.312406,
            32.840145
          ],
          [
            -97.312054,
            32.839852
          ],
          [
            -97.31174,
            32.839653
          ],
          [
            -97.311493,
            32.839523
          ],
          [
            -97.311159,
            32.839385
          ],
          [
            -97.31073,
            32.839256
          ],
          [
            -97.310171,
            32.839148
          ],
          [
            -97.309893,
            32.839121
          ],
          [
            -97.309056,
            32.839106
          ],
          [
            -97.308337,
            32.83908
          ],
          [
            -97.305966,
            32.839032
          ],
          [
            -97.303869,
            32.83904
          ],
          [
            -97.302379,
            32.839088
          ],
          [
            -97.301049,
            32.839153
          ],
          [
            -97.300459,
            32.839151
          ],
          [
            -97.300189,
            32.839149
          ],
          [
            -97.296798,
            32.839138
          ],
          [
            -97.294888,
            32.839221
          ],
          [
            -97.294547,
            32.839293
          ],
          [
            -97.293021,
            32.839405
          ],
          [
            -97.292717,
            32.839467
          ],
          [
            -97.290944,
            32.839471
          ],
          [
            -97.290253,
            32.839471
          ],
          [
            -97.286417,
            32.839471
          ],
          [
            -97.281034,
            32.839453
          ],
          [
            -97.276947,
            32.839457
          ],
          [
            -97.27644,
            32.839456
          ],
          [
            -97.273944,
            32.839452
          ],
          [
            -97.269797,
            32.839437
          ],
          [
            -97.269342,
            32.839435
          ],
          [
            -97.266996,
            32.839439
          ],
          [
            -97.265038,
            32.839425
          ],
          [
            -97.263822,
            32.839456
          ],
          [
            -97.262635,
            32.839513
          ],
          [
            -97.261323,
            32.839609
          ],
          [
            -97.260265,
            32.839698
          ],
          [
            -97.256447,
            32.840021
          ],
          [
            -97.254698,
            32.840136
          ],
          [
            -97.254245,
            32.840153
          ],
          [
            -97.253792,
            32.840165
          ],
          [
            -97.252634,
            32.840176
          ],
          [
            -97.251178,
            32.840163
          ],
          [
            -97.248656,
            32.840117
          ],
          [
            -97.245189,
            32.840109
          ],
          [
            -97.244679,
            32.840106
          ],
          [
            -97.241598,
            32.840151
          ],
          [
            -97.240427,
            32.840189
          ],
          [
            -97.237955,
            32.840225
          ],
          [
            -97.236559,
            32.840239
          ],
          [
            -97.236206,
            32.840231
          ],
          [
            -97.235252,
            32.840184
          ],
          [
            -97.234046,
            32.84008
          ],
          [
            -97.232809,
            32.839913
          ],
          [
            -97.23204,
            32.839786
          ],
          [
            -97.23129,
            32.839641
          ],
          [
            -97.230463,
            32.839449
          ],
          [
            -97.229764,
            32.839258
          ],
          [
            -97.229182,
            32.839071
          ],
          [
            -97.22822,
            32.838708
          ],
          [
            -97.227597,
            32.838433
          ],
          [
            -97.227179,
            32.838235
          ],
          [
            -97.226567,
            32.837912
          ],
          [
            -97.220746,
            32.834678
          ],
          [
            -97.2201,
            32.83436
          ],
          [
            -97.219377,
            32.834042
          ],
          [
            -97.218866,
            32.833835
          ],
          [
            -97.218028,
            32.833544
          ],
          [
            -97.217492,
            32.833375
          ],
          [
            -97.216222,
            32.833078
          ],
          [
            -97.215616,
            32.832971
          ],
          [
            -97.215095,
            32.832903
          ],
          [
            -97.214639,
            32.832854
          ],
          [
            -97.213574,
            32.832801
          ],
          [
            -97.212494,
            32.832809
          ],
          [
            -97.210632,
            32.832783
          ],
          [
            -97.209276,
            32.832749
          ],
          [
            -97.205545,
            32.832526
          ],
          [
            -97.205143,
            32.832513
          ],
          [
            -97.204655,
            32.832524
          ],
          [
            -97.204216,
            32.832554
          ],
          [
            -97.203513,
            32.832659
          ],
          [
            -97.202874,
            32.832797
          ],
          [
            -97.200365,
            32.833566
          ],
          [
            -97.199493,
            32.833913
          ],
          [
            -97.198999,
            32.834162
          ],
          [
            -97.198561,
            32.834394
          ],
          [
            -97.198036,
            32.834726
          ],
          [
            -97.197531,
            32.8351
          ],
          [
            -97.19691,
            32.835655
          ],
          [
            -97.195871,
            32.836545
          ],
          [
            -97.195311,
            32.836961
          ],
          [
            -97.195007,
            32.837159
          ],
          [
            -97.194696,
            32.837342
          ],
          [
            -97.194056,
            32.837661
          ],
          [
            -97.193364,
            32.837929
          ],
          [
            -97.192641,
            32.838136
          ],
          [
            -97.192035,
            32.838265
          ],
          [
            -97.187671,
            32.838981
          ],
          [
            -97.186586,
            32.839157
          ],
          [
            -97.186274,
            32.839209
          ],
          [
            -97.185959,
            32.839262
          ],
          [
            -97.185191,
            32.839388
          ],
          [
            -97.184072,
            32.839533
          ],
          [
            -97.18281,
            32.839658
          ],
          [
            -97.181806,
            32.839723
          ],
          [
            -97.180782,
            32.839762
          ],
          [
            -97.179904,
            32.839774
          ],
          [
            -97.176374,
            32.83973
          ],
          [
            -97.174824,
            32.839745
          ],
          [
            -97.172488,
            32.839664
          ],
          [
            -97.168055,
            32.839597
          ],
          [
            -97.16745,
            32.839597
          ],
          [
            -97.166969,
            32.839601
          ],
          [
            -97.166068,
            32.83964
          ],
          [
            -97.162538,
            32.839922
          ],
          [
            -97.161641,
            32.839973
          ],
          [
            -97.160808,
            32.839998
          ],
          [
            -97.159841,
            32.840002
          ],
          [
            -97.158922,
            32.840003
          ],
          [
            -97.154877,
            32.839999
          ],
          [
            -97.154353,
            32.839974
          ],
          [
            -97.15387,
            32.839924
          ],
          [
            -97.153372,
            32.839855
          ],
          [
            -97.152876,
            32.839763
          ],
          [
            -97.15239,
            32.839655
          ],
          [
            -97.151905,
            32.839522
          ],
          [
            -97.151556,
            32.83941
          ],
          [
            -97.1512,
            32.839282
          ],
          [
            -97.150817,
            32.839125
          ],
          [
            -97.150212,
            32.838862
          ],
          [
            -97.147357,
            32.837569
          ],
          [
            -97.147052,
            32.837451
          ],
          [
            -97.146337,
            32.837213
          ],
          [
            -97.145606,
            32.837028
          ],
          [
            -97.144852,
            32.836892
          ],
          [
            -97.144101,
            32.836815
          ],
          [
            -97.143345,
            32.836789
          ],
          [
            -97.142204,
            32.836788
          ],
          [
            -97.141479,
            32.836786
          ],
          [
            -97.133789,
            32.836773
          ],
          [
            -97.133064,
            32.83677
          ],
          [
            -97.131836,
            32.836767
          ],
          [
            -97.128691,
            32.836713
          ],
          [
            -97.127853,
            32.836737
          ],
          [
            -97.12737,
            32.836792
          ],
          [
            -97.126774,
            32.836884
          ],
          [
            -97.124438,
            32.837349
          ],
          [
            -97.12379,
            32.837466
          ],
          [
            -97.123211,
            32.837556
          ],
          [
            -97.122877,
            32.83759
          ],
          [
            -97.122202,
            32.837618
          ],
          [
            -97.120816,
            32.837624
          ],
          [
            -97.119405,
            32.837611
          ],
          [
            -97.114787,
            32.83759
          ],
          [
            -97.114431,
            32.837604
          ],
          [
            -97.113447,
            32.837604
          ],
          [
            -97.110474,
            32.837641
          ],
          [
            -97.107625,
            32.837682
          ],
          [
            -97.100247,
            32.837666
          ],
          [
            -97.099448,
            32.837666
          ],
          [
            -97.091068,
            32.837639
          ],
          [
            -97.090272,
            32.837666
          ],
          [
            -97.089684,
            32.837702
          ],
          [
            -97.088772,
            32.837792
          ],
          [
            -97.088054,
            32.837883
          ],
          [
            -97.086825,
            32.83811
          ],
          [
            -97.085199,
            32.838399
          ],
          [
            -97.084911,
            32.838408
          ],
          [
            -97.083976,
            32.838567
          ],
          [
            -97.082953,
            32.838663
          ],
          [
            -97.08243,
            32.83866
          ],
          [
            -97.081954,
            32.838633
          ],
          [
            -97.081042,
            32.838538
          ],
          [
            -97.079511,
            32.838288
          ],
          [
            -97.077369,
            32.837964
          ],
          [
            -97.073455,
            32.83733
          ],
          [
            -97.07254,
            32.837202
          ],
          [
            -97.071774,
            32.83711
          ],
          [
            -97.070976,
            32.837054
          ],
          [
            -97.07019,
            32.837031
          ],
          [
            -97.067584,
            32.837018
          ],
          [
            -97.065507,
            32.836999
          ],
          [
            -97.065178,
            32.837013
          ],
          [
            -97.064315,
            32.837096
          ],
          [
            -97.063726,
            32.837183
          ],
          [
            -97.063152,
            32.837291
          ],
          [
            -97.062338,
            32.837407
          ],
          [
            -97.061467,
            32.837542
          ],
          [
            -97.060939,
            32.837625
          ],
          [
            -97.059272,
            32.837875
          ],
          [
            -97.058421,
            32.837935
          ],
          [
            -97.058162,
            32.837934
          ],
          [
            -97.057165,
            32.83792
          ],
          [
            -97.056952,
            32.837909
          ],
          [
            -97.056101,
            32.837914
          ],
          [
            -97.054445,
            32.837877
          ],
          [
            -97.053502,
            32.837826
          ],
          [
            -97.052241,
            32.837701
          ],
          [
            -97.051392,
            32.837567
          ],
          [
            -97.050473,
            32.837363
          ],
          [
            -97.049536,
            32.837137
          ],
          [
            -97.048783,
            32.836923
          ],
          [
            -97.048122,
            32.836722
          ],
          [
            -97.045543,
            32.835932
          ],
          [
            -97.045164,
            32.835827
          ],
          [
            -97.04478,
            32.835756
          ],
          [
            -97.044359,
            32.835702
          ],
          [
            -97.043959,
            32.835678
          ],
          [
            -97.04354,
            32.835688
          ],
          [
            -97.043136,
            32.835732
          ],
          [
            -97.042728,
            32.835803
          ],
          [
            -97.042328,
            32.835904
          ],
          [
            -97.041946,
            32.836035
          ],
          [
            -97.041581,
            32.836192
          ],
          [
            -97.041241,
            32.836367
          ],
          [
            -97.040774,
            32.836657
          ],
          [
            -97.040542,
            32.836844
          ],
          [
            -97.040295,
            32.837071
          ],
          [
            -97.039922,
            32.837494
          ],
          [
            -97.039665,
            32.837886
          ],
          [
            -97.039478,
            32.838257
          ],
          [
            -97.039311,
            32.838692
          ],
          [
            -97.039273,
            32.838863
          ],
          [
            -97.039207,
            32.839268
          ],
          [
            -97.039185,
            32.839525
          ],
          [
            -97.039187,
            32.839792
          ],
          [
            -97.039211,
            32.84002
          ],
          [
            -97.039262,
            32.840421
          ],
          [
            -97.040071,
            32.842955
          ],
          [
            -97.040254,
            32.843701
          ],
          [
            -97.040305,
            32.843985
          ],
          [
            -97.040386,
            32.844868
          ],
          [
            -97.040388,
            32.845572
          ],
          [
            -97.040395,
            32.847739
          ],
          [
            -97.040399,
            32.848849
          ],
          [
            -97.040384,
            32.849151
          ],
          [
            -97.040379,
            32.849252
          ],
          [
            -97.040363,
            32.850029
          ],
          [
            -97.040318,
            32.852921
          ],
          [
            -97.0403,
            32.861574
          ],
          [
            -97.040262,
            32.862277
          ],
          [
            -97.040117,
            32.863475
          ],
          [
            -97.040053,
            32.864347
          ],
          [
            -97.040043,
            32.864448
          ],
          [
            -97.039991,
            32.865244
          ],
          [
            -97.040038,
            32.865993
          ],
          [
            -97.040044,
            32.866254
          ],
          [
            -97.040044,
            32.866425
          ],
          [
            -97.040049,
            32.866743
          ],
          [
            -97.040384,
            32.867236
          ],
          [
            -97.040439,
            32.867279
          ],
          [
            -97.040443,
            32.867682
          ],
          [
            -97.040341,
            32.867852
          ],
          [
            -97.040257,
            32.867948
          ],
          [
            -97.040143,
            32.868144
          ],
          [
            -97.040024,
            32.868443
          ],
          [
            -97.039996,
            32.868662
          ],
          [
            -97.039938,
            32.868752
          ],
          [
            -97.039891,
            32.873067
          ],
          [
            -97.039895,
            32.873973
          ],
          [
            -97.03988,
            32.87664
          ],
          [
            -97.039875,
            32.877469
          ],
          [
            -97.039874,
            32.880348
          ],
          [
            -97.039888,
            32.880788
          ],
          [
            -97.039869,
            32.881655
          ],
          [
            -97.039865,
            32.885637
          ],
          [
            -97.039847,
            32.886457
          ],
          [
            -97.039859,
            32.887434
          ],
          [
            -97.039848,
            32.888885
          ],
          [
            -97.039859,
            32.89011
          ],
          [
            -97.039928,
            32.890647
          ],
          [
            -97.039958,
            32.891251
          ],
          [
            -97.039939,
            32.891977
          ],
          [
            -97.039964,
            32.892077
          ],
          [
            -97.040032,
            32.892185
          ],
          [
            -97.04008,
            32.892228
          ],
          [
            -97.040204,
            32.8923
          ],
          [
            -97.04028,
            32.89232
          ],
          [
            -97.040423,
            32.892328
          ],
          [
            -97.04056,
            32.8923
          ],
          [
            -97.04066,
            32.892244
          ],
          [
            -97.040752,
            32.892149
          ],
          [
            -97.040807,
            32.892014
          ],
          [
            -97.040823,
            32.891884
          ],
          [
            -97.040746,
            32.891721
          ],
          [
            -97.040677,
            32.891646
          ],
          [
            -97.040574,
            32.891584
          ],
          [
            -97.0404,
            32.89153
          ],
          [
            -97.038706,
            32.891517
          ],
          [
            -97.038473,
            32.891501
          ],
          [
            -97.038314,
            32.891487
          ],
          [
            -97.03817,
            32.89143
          ],
          [
            -97.037816,
            32.891322
          ],
          [
            -97.037639,
            32.891248
          ],
          [
            -97.037572,
            32.891198
          ],
          [
            -97.037505,
            32.891176
          ],
          [
            -97.037422,
            32.891176
          ],
          [
            -97.037347,
            32.891204
          ],
          [
            -97.036972,
            32.89144
          ],
          [
            -97.036903,
            32.891481
          ],
          [
            -97.036856,
            32.891508
          ],
          [
            -97.036803,
            32.89157
          ],
          [
            -97.036792,
            32.891692
          ],
          [
            -97.036817,
            32.891765
          ],
          [
            -97.037032,
            32.891933
          ],
          [
            -97.03731,
            32.892091
          ],
          [
            -97.037601,
            32.892223
          ],
          [
            -97.037808,
            32.89229
          ],
          [
            -97.037943,
            32.892318
          ]
        ]
      }
    }
  ]
}
