{
  "type": "FeatureCollection",
  "properties": {
    "dayNumber": 16,
    "title": "Mont Blanc"
  },
  "features": [
    {
      "type": "Feature",
      "properties": {
        "mode": "drive",
        "fromStopIndex": 0,
        "toStopIndex": 1,
        "fromName": "Courmayeur",
        "toName": "Skyway Monte Bianco — Courmayeur",
        "waypointNames": [
          "Courmayeur",
          "Skyway Monte Bianco — Courmayeur"
        ],
        "distanceMeters": 3325.9,
        "durationSeconds": 412.0
      },
      "geometry": {
        "type": "LineString",
        "coordinates": [
          [
            6.971718,
            45.791403
          ],
          [
            6.971717,
            45.791406
          ],
          [
            6.971565,
            45.791889
          ],
          [
            6.971558,
            45.791954
          ],
          [
            6.971567,
            45.792084
          ],
          [
            6.971597,
            45.79232
          ],
          [
            6.97117,
            45.792636
          ],
          [
            6.970619,
            45.792836
          ],
          [
            6.970566,
            45.792855
          ],
          [
            6.96999,
            45.793063
          ],
          [
            6.968683,
            45.793602
          ],
          [
            6.968525,
            45.793643
          ],
          [
            6.968428,
            45.793646
          ],
          [
            6.968141,
            45.794069
          ],
          [
            6.968022,
            45.794314
          ],
          [
            6.967945,
            45.794531
          ],
          [
            6.967895,
            45.794748
          ],
          [
            6.967879,
            45.794956
          ],
          [
            6.968023,
            45.797828
          ],
          [
            6.968054,
            45.798435
          ],
          [
            6.968056,
            45.798483
          ],
          [
            6.968074,
            45.798819
          ],
          [
            6.968078,
            45.798884
          ],
          [
            6.968088,
            45.799044
          ],
          [
            6.968133,
            45.79971
          ],
          [
            6.968294,
            45.800498
          ],
          [
            6.96839,
            45.800974
          ],
          [
            6.968411,
            45.801212
          ],
          [
            6.968367,
            45.801572
          ],
          [
            6.968286,
            45.801894
          ],
          [
            6.968202,
            45.80217
          ],
          [
            6.967878,
            45.803157
          ],
          [
            6.967562,
            45.804117
          ],
          [
            6.967384,
            45.804442
          ],
          [
            6.967069,
            45.804862
          ],
          [
            6.966864,
            45.805204
          ],
          [
            6.966742,
            45.805481
          ],
          [
            6.966216,
            45.80667
          ],
          [
            6.965905,
            45.807374
          ],
          [
            6.965224,
            45.808906
          ],
          [
            6.965033,
            45.809192
          ],
          [
            6.964831,
            45.809399
          ],
          [
            6.964662,
            45.809539
          ],
          [
            6.964412,
            45.809708
          ],
          [
            6.96412,
            45.809897
          ],
          [
            6.963615,
            45.81024
          ],
          [
            6.963164,
            45.810536
          ],
          [
            6.962628,
            45.810899
          ],
          [
            6.962024,
            45.81131
          ],
          [
            6.961769,
            45.811479
          ],
          [
            6.958333,
            45.813762
          ],
          [
            6.957289,
            45.814482
          ],
          [
            6.957066,
            45.81462
          ],
          [
            6.95679,
            45.814751
          ],
          [
            6.956615,
            45.814825
          ],
          [
            6.956384,
            45.814931
          ],
          [
            6.956288,
            45.815023
          ],
          [
            6.956288,
            45.815058
          ],
          [
            6.95625,
            45.815116
          ],
          [
            6.956398,
            45.815326
          ],
          [
            6.956519,
            45.815478
          ],
          [
            6.956603,
            45.815585
          ],
          [
            6.956699,
            45.815623
          ],
          [
            6.956711,
            45.815699
          ],
          [
            6.956662,
            45.815739
          ],
          [
            6.956605,
            45.81575
          ],
          [
            6.956515,
            45.815726
          ],
          [
            6.956423,
            45.816042
          ],
          [
            6.956371,
            45.816103
          ],
          [
            6.956088,
            45.816164
          ],
          [
            6.955966,
            45.816159
          ],
          [
            6.955895,
            45.816132
          ],
          [
            6.955767,
            45.816083
          ],
          [
            6.955746,
            45.816063
          ],
          [
            6.955761,
            45.816022
          ],
          [
            6.955805,
            45.816011
          ],
          [
            6.955849,
            45.816027
          ]
        ]
      }
    },
    {
      "type": "Feature",
      "properties": {
        "mode": "drive",
        "fromStopIndex": 5,
        "toStopIndex": 6,
        "fromName": "Skyway Monte Bianco — Courmayeur",
        "toName": "Courmayeur",
        "waypointNames": [
          "Skyway Monte Bianco — Courmayeur",
          "Courmayeur"
        ],
        "distanceMeters": 3514.2,
        "durationSeconds": 445.6
      },
      "geometry": {
        "type": "LineString",
        "coordinates": [
          [
            6.955849,
            45.816027
          ],
          [
            6.955895,
            45.816132
          ],
          [
            6.955966,
            45.816159
          ],
          [
            6.956088,
            45.816164
          ],
          [
            6.956371,
            45.816103
          ],
          [
            6.956423,
            45.816042
          ],
          [
            6.956515,
            45.815726
          ],
          [
            6.956481,
            45.815676
          ],
          [
            6.956485,
            45.815648
          ],
          [
            6.956333,
            45.815461
          ],
          [
            6.956285,
            45.815366
          ],
          [
            6.956098,
            45.815155
          ],
          [
            6.955997,
            45.815118
          ],
          [
            6.955954,
            45.815045
          ],
          [
            6.955969,
            45.814991
          ],
          [
            6.956002,
            45.814957
          ],
          [
            6.956083,
            45.814925
          ],
          [
            6.95617,
            45.814927
          ],
          [
            6.956615,
            45.814825
          ],
          [
            6.95679,
            45.814751
          ],
          [
            6.957066,
            45.81462
          ],
          [
            6.957289,
            45.814482
          ],
          [
            6.958333,
            45.813762
          ],
          [
            6.961769,
            45.811479
          ],
          [
            6.962024,
            45.81131
          ],
          [
            6.962628,
            45.810899
          ],
          [
            6.963164,
            45.810536
          ],
          [
            6.963615,
            45.81024
          ],
          [
            6.96412,
            45.809897
          ],
          [
            6.964412,
            45.809708
          ],
          [
            6.964662,
            45.809539
          ],
          [
            6.964831,
            45.809399
          ],
          [
            6.965033,
            45.809192
          ],
          [
            6.965224,
            45.808906
          ],
          [
            6.965905,
            45.807374
          ],
          [
            6.966216,
            45.80667
          ],
          [
            6.966742,
            45.805481
          ],
          [
            6.966864,
            45.805204
          ],
          [
            6.967069,
            45.804862
          ],
          [
            6.967384,
            45.804442
          ],
          [
            6.967562,
            45.804117
          ],
          [
            6.967878,
            45.803157
          ],
          [
            6.968202,
            45.80217
          ],
          [
            6.968286,
            45.801894
          ],
          [
            6.968367,
            45.801572
          ],
          [
            6.968411,
            45.801212
          ],
          [
            6.96839,
            45.800974
          ],
          [
            6.968294,
            45.800498
          ],
          [
            6.968133,
            45.79971
          ],
          [
            6.968088,
            45.799044
          ],
          [
            6.968078,
            45.798884
          ],
          [
            6.968074,
            45.798819
          ],
          [
            6.968056,
            45.798483
          ],
          [
            6.968054,
            45.798435
          ],
          [
            6.968023,
            45.797828
          ],
          [
            6.967879,
            45.794956
          ],
          [
            6.967895,
            45.794748
          ],
          [
            6.967945,
            45.794531
          ],
          [
            6.968022,
            45.794314
          ],
          [
            6.968141,
            45.794069
          ],
          [
            6.968428,
            45.793646
          ],
          [
            6.968851,
            45.793014
          ],
          [
            6.969084,
            45.792498
          ],
          [
            6.969234,
            45.792137
          ],
          [
            6.969337,
            45.791887
          ],
          [
            6.969498,
            45.791494
          ],
          [
            6.969602,
            45.791239
          ],
          [
            6.969673,
            45.791081
          ],
          [
            6.969792,
            45.79078
          ],
          [
            6.969782,
            45.790735
          ],
          [
            6.969802,
            45.790695
          ],
          [
            6.969896,
            45.790656
          ],
          [
            6.969986,
            45.790674
          ],
          [
            6.97002,
            45.790701
          ],
          [
            6.970334,
            45.79069
          ],
          [
            6.970623,
            45.790704
          ],
          [
            6.970692,
            45.790748
          ],
          [
            6.970732,
            45.790741
          ],
          [
            6.970863,
            45.790763
          ],
          [
            6.970933,
            45.790822
          ],
          [
            6.970944,
            45.790849
          ],
          [
            6.971193,
            45.790864
          ],
          [
            6.971512,
            45.790783
          ],
          [
            6.971692,
            45.790771
          ],
          [
            6.971772,
            45.790789
          ],
          [
            6.97186,
            45.790856
          ],
          [
            6.971877,
            45.790947
          ],
          [
            6.971718,
            45.791403
          ]
        ]
      }
    }
  ]
}
