{
  "type": "FeatureCollection",
  "properties": {
    "dayNumber": 24,
    "title": "The Long Way Home"
  },
  "features": [
    {
      "type": "Feature",
      "properties": {
        "mode": "drive",
        "fromStopIndex": 2,
        "toStopIndex": 3,
        "fromName": "DFW Airport",
        "toName": "North Fort Worth",
        "waypointNames": [
          "DFW Airport",
          "North Fort Worth"
        ],
        "distanceMeters": 34852.5,
        "durationSeconds": 1876.6
      },
      "geometry": {
        "type": "LineString",
        "coordinates": [
          [
            -97.037943,
            32.892318
          ],
          [
            -97.038158,
            32.892363
          ],
          [
            -97.038532,
            32.892389
          ],
          [
            -97.038685,
            32.892387
          ],
          [
            -97.038925,
            32.892381
          ],
          [
            -97.039034,
            32.892352
          ],
          [
            -97.03909,
            32.892277
          ],
          [
            -97.039103,
            32.892162
          ],
          [
            -97.039103,
            32.891771
          ],
          [
            -97.039093,
            32.891642
          ],
          [
            -97.039046,
            32.891538
          ],
          [
            -97.038979,
            32.891459
          ],
          [
            -97.038908,
            32.891405
          ],
          [
            -97.038804,
            32.891377
          ],
          [
            -97.03874,
            32.891358
          ],
          [
            -97.038476,
            32.891342
          ],
          [
            -97.038365,
            32.891315
          ],
          [
            -97.038259,
            32.891277
          ],
          [
            -97.038168,
            32.891213
          ],
          [
            -97.038109,
            32.891148
          ],
          [
            -97.037826,
            32.890814
          ],
          [
            -97.037757,
            32.890706
          ],
          [
            -97.03771,
            32.890588
          ],
          [
            -97.037684,
            32.890474
          ],
          [
            -97.037683,
            32.890353
          ],
          [
            -97.037712,
            32.890218
          ],
          [
            -97.037783,
            32.890037
          ],
          [
            -97.037901,
            32.889869
          ],
          [
            -97.038061,
            32.889752
          ],
          [
            -97.038173,
            32.889702
          ],
          [
            -97.038478,
            32.889628
          ],
          [
            -97.038672,
            32.88962
          ],
          [
            -97.03889,
            32.889651
          ],
          [
            -97.039001,
            32.8897
          ],
          [
            -97.039079,
            32.889758
          ],
          [
            -97.039157,
            32.889925
          ],
          [
            -97.039255,
            32.890111
          ],
          [
            -97.039308,
            32.890179
          ],
          [
            -97.039438,
            32.890268
          ],
          [
            -97.039533,
            32.890307
          ],
          [
            -97.039688,
            32.890321
          ],
          [
            -97.040182,
            32.890338
          ],
          [
            -97.040771,
            32.890338
          ],
          [
            -97.040901,
            32.890312
          ],
          [
            -97.041007,
            32.89027
          ],
          [
            -97.041088,
            32.890215
          ],
          [
            -97.041171,
            32.890116
          ],
          [
            -97.041224,
            32.889957
          ],
          [
            -97.041259,
            32.889129
          ],
          [
            -97.04124,
            32.888657
          ],
          [
            -97.041087,
            32.887513
          ],
          [
            -97.041087,
            32.886466
          ],
          [
            -97.041081,
            32.884456
          ],
          [
            -97.04111,
            32.880885
          ],
          [
            -97.041094,
            32.880312
          ],
          [
            -97.041135,
            32.877487
          ],
          [
            -97.041135,
            32.876644
          ],
          [
            -97.041131,
            32.875162
          ],
          [
            -97.04117,
            32.873935
          ],
          [
            -97.041167,
            32.873054
          ],
          [
            -97.041142,
            32.872184
          ],
          [
            -97.041153,
            32.87121
          ],
          [
            -97.041175,
            32.870686
          ],
          [
            -97.041183,
            32.869195
          ],
          [
            -97.041184,
            32.869168
          ],
          [
            -97.041105,
            32.869052
          ],
          [
            -97.041002,
            32.868316
          ],
          [
            -97.04095,
            32.868107
          ],
          [
            -97.040895,
            32.867979
          ],
          [
            -97.040826,
            32.867888
          ],
          [
            -97.040701,
            32.867691
          ],
          [
            -97.040706,
            32.867283
          ],
          [
            -97.041289,
            32.866456
          ],
          [
            -97.04129,
            32.866272
          ],
          [
            -97.041299,
            32.865964
          ],
          [
            -97.041299,
            32.865872
          ],
          [
            -97.041299,
            32.865702
          ],
          [
            -97.041299,
            32.865611
          ],
          [
            -97.041272,
            32.864962
          ],
          [
            -97.041236,
            32.864359
          ],
          [
            -97.041226,
            32.864247
          ],
          [
            -97.041141,
            32.863521
          ],
          [
            -97.040988,
            32.862611
          ],
          [
            -97.040941,
            32.862184
          ],
          [
            -97.040925,
            32.861844
          ],
          [
            -97.040967,
            32.853148
          ],
          [
            -97.040976,
            32.851203
          ],
          [
            -97.040975,
            32.850058
          ],
          [
            -97.040965,
            32.848352
          ],
          [
            -97.04096,
            32.847639
          ],
          [
            -97.040966,
            32.845587
          ],
          [
            -97.040972,
            32.844854
          ],
          [
            -97.041019,
            32.844188
          ],
          [
            -97.041116,
            32.843536
          ],
          [
            -97.041249,
            32.842927
          ],
          [
            -97.041539,
            32.841989
          ],
          [
            -97.041837,
            32.841294
          ],
          [
            -97.0421,
            32.840826
          ],
          [
            -97.042474,
            32.840311
          ],
          [
            -97.042654,
            32.840101
          ],
          [
            -97.042937,
            32.839813
          ],
          [
            -97.043091,
            32.839771
          ],
          [
            -97.043345,
            32.839586
          ],
          [
            -97.043628,
            32.839407
          ],
          [
            -97.044172,
            32.839159
          ],
          [
            -97.044721,
            32.838944
          ],
          [
            -97.045349,
            32.838768
          ],
          [
            -97.045987,
            32.83865
          ],
          [
            -97.046586,
            32.838589
          ],
          [
            -97.046905,
            32.838581
          ],
          [
            -97.047174,
            32.838559
          ],
          [
            -97.047825,
            32.838563
          ],
          [
            -97.04811,
            32.838578
          ],
          [
            -97.048601,
            32.838616
          ],
          [
            -97.048953,
            32.838661
          ],
          [
            -97.049062,
            32.838636
          ],
          [
            -97.049173,
            32.838695
          ],
          [
            -97.049308,
            32.838714
          ],
          [
            -97.049532,
            32.83876
          ],
          [
            -97.050005,
            32.838889
          ],
          [
            -97.050914,
            32.839191
          ],
          [
            -97.052261,
            32.839669
          ],
          [
            -97.052669,
            32.839762
          ],
          [
            -97.053078,
            32.839806
          ],
          [
            -97.053469,
            32.83979
          ],
          [
            -97.055117,
            32.839591
          ],
          [
            -97.056164,
            32.839455
          ],
          [
            -97.056344,
            32.839396
          ],
          [
            -97.056989,
            32.839311
          ],
          [
            -97.057693,
            32.83916
          ],
          [
            -97.058497,
            32.838957
          ],
          [
            -97.059712,
            32.838608
          ],
          [
            -97.060323,
            32.838445
          ],
          [
            -97.060784,
            32.838252
          ],
          [
            -97.061495,
            32.838044
          ],
          [
            -97.062374,
            32.837795
          ],
          [
            -97.062932,
            32.837664
          ],
          [
            -97.063516,
            32.837549
          ],
          [
            -97.06449,
            32.837414
          ],
          [
            -97.065043,
            32.837352
          ],
          [
            -97.065954,
            32.837301
          ],
          [
            -97.066607,
            32.837284
          ],
          [
            -97.067735,
            32.837289
          ],
          [
            -97.067908,
            32.837289
          ],
          [
            -97.069353,
            32.837305
          ],
          [
            -97.07,
            32.83731
          ],
          [
            -97.070981,
            32.837337
          ],
          [
            -97.071788,
            32.837401
          ],
          [
            -97.072399,
            32.837475
          ],
          [
            -97.075541,
            32.837935
          ],
          [
            -97.076531,
            32.83808
          ],
          [
            -97.077518,
            32.838232
          ],
          [
            -97.081493,
            32.838849
          ],
          [
            -97.08229,
            32.838926
          ],
          [
            -97.08295,
            32.838937
          ],
          [
            -97.08344,
            32.838924
          ],
          [
            -97.084409,
            32.838836
          ],
          [
            -97.085195,
            32.838689
          ],
          [
            -97.087429,
            32.838203
          ],
          [
            -97.088179,
            32.838065
          ],
          [
            -97.089162,
            32.837925
          ],
          [
            -97.089325,
            32.837907
          ],
          [
            -97.089829,
            32.837858
          ],
          [
            -97.090312,
            32.837833
          ],
          [
            -97.091101,
            32.837799
          ],
          [
            -97.094278,
            32.837836
          ],
          [
            -97.095998,
            32.837835
          ],
          [
            -97.099432,
            32.837834
          ],
          [
            -97.100254,
            32.837836
          ],
          [
            -97.102168,
            32.837861
          ],
          [
            -97.104499,
            32.837878
          ],
          [
            -97.105307,
            32.83789
          ],
          [
            -97.109776,
            32.838012
          ],
          [
            -97.112014,
            32.837965
          ],
          [
            -97.113221,
            32.83797
          ],
          [
            -97.115145,
            32.837974
          ],
          [
            -97.116438,
            32.837979
          ],
          [
            -97.116909,
            32.837971
          ],
          [
            -97.117788,
            32.837989
          ],
          [
            -97.119399,
            32.837992
          ],
          [
            -97.121756,
            32.837999
          ],
          [
            -97.122623,
            32.837988
          ],
          [
            -97.123177,
            32.83797
          ],
          [
            -97.123631,
            32.837937
          ],
          [
            -97.12436,
            32.837826
          ],
          [
            -97.126891,
            32.837303
          ],
          [
            -97.127689,
            32.83718
          ],
          [
            -97.128484,
            32.837119
          ],
          [
            -97.13033,
            32.837112
          ],
          [
            -97.131352,
            32.837106
          ],
          [
            -97.13286,
            32.837109
          ],
          [
            -97.133971,
            32.83711
          ],
          [
            -97.138165,
            32.837124
          ],
          [
            -97.140859,
            32.837118
          ],
          [
            -97.141348,
            32.837119
          ],
          [
            -97.14225,
            32.837121
          ],
          [
            -97.14262,
            32.837132
          ],
          [
            -97.1429,
            32.837127
          ],
          [
            -97.14359,
            32.837134
          ],
          [
            -97.144208,
            32.837165
          ],
          [
            -97.145033,
            32.837261
          ],
          [
            -97.14551,
            32.837356
          ],
          [
            -97.146127,
            32.837507
          ],
          [
            -97.146608,
            32.837657
          ],
          [
            -97.147046,
            32.83782
          ],
          [
            -97.14807,
            32.838257
          ],
          [
            -97.149715,
            32.839016
          ],
          [
            -97.150623,
            32.839424
          ],
          [
            -97.151321,
            32.83972
          ],
          [
            -97.151729,
            32.839863
          ],
          [
            -97.152134,
            32.839982
          ],
          [
            -97.15275,
            32.840134
          ],
          [
            -97.15336,
            32.840238
          ],
          [
            -97.153853,
            32.840297
          ],
          [
            -97.154311,
            32.840329
          ],
          [
            -97.154746,
            32.84034
          ],
          [
            -97.15575,
            32.840342
          ],
          [
            -97.157814,
            32.840355
          ],
          [
            -97.158937,
            32.840357
          ],
          [
            -97.159813,
            32.840353
          ],
          [
            -97.160824,
            32.840349
          ],
          [
            -97.161694,
            32.840327
          ],
          [
            -97.162576,
            32.840275
          ],
          [
            -97.166096,
            32.839993
          ],
          [
            -97.167368,
            32.839949
          ],
          [
            -97.168156,
            32.839954
          ],
          [
            -97.169678,
            32.839973
          ],
          [
            -97.174212,
            32.840053
          ],
          [
            -97.175731,
            32.840059
          ],
          [
            -97.177405,
            32.840102
          ],
          [
            -97.179104,
            32.840112
          ],
          [
            -97.18043,
            32.840118
          ],
          [
            -97.181167,
            32.840105
          ],
          [
            -97.181876,
            32.840072
          ],
          [
            -97.182905,
            32.840009
          ],
          [
            -97.183462,
            32.839952
          ],
          [
            -97.184941,
            32.839764
          ],
          [
            -97.185764,
            32.839642
          ],
          [
            -97.186795,
            32.839472
          ],
          [
            -97.188033,
            32.839272
          ],
          [
            -97.189663,
            32.839001
          ],
          [
            -97.19075,
            32.838825
          ],
          [
            -97.192647,
            32.838518
          ],
          [
            -97.193245,
            32.838364
          ],
          [
            -97.193949,
            32.838131
          ],
          [
            -97.194626,
            32.837836
          ],
          [
            -97.195292,
            32.837479
          ],
          [
            -97.195738,
            32.837188
          ],
          [
            -97.196327,
            32.836728
          ],
          [
            -97.197693,
            32.835489
          ],
          [
            -97.198423,
            32.834884
          ],
          [
            -97.198798,
            32.834631
          ],
          [
            -97.199308,
            32.834346
          ],
          [
            -97.199511,
            32.834278
          ],
          [
            -97.199803,
            32.834148
          ],
          [
            -97.200589,
            32.833889
          ],
          [
            -97.202923,
            32.833276
          ],
          [
            -97.203676,
            32.833076
          ],
          [
            -97.204058,
            32.83299
          ],
          [
            -97.204848,
            32.832869
          ],
          [
            -97.205238,
            32.832836
          ],
          [
            -97.205633,
            32.832823
          ],
          [
            -97.2062,
            32.832832
          ],
          [
            -97.207414,
            32.832906
          ],
          [
            -97.207778,
            32.832935
          ],
          [
            -97.208181,
            32.832962
          ],
          [
            -97.209353,
            32.833053
          ],
          [
            -97.211865,
            32.833112
          ],
          [
            -97.212396,
            32.833025
          ],
          [
            -97.213048,
            32.833044
          ],
          [
            -97.213667,
            32.833045
          ],
          [
            -97.214376,
            32.833073
          ],
          [
            -97.214814,
            32.833106
          ],
          [
            -97.215365,
            32.833167
          ],
          [
            -97.215972,
            32.833261
          ],
          [
            -97.216447,
            32.833354
          ],
          [
            -97.217133,
            32.833513
          ],
          [
            -97.217657,
            32.833668
          ],
          [
            -97.218277,
            32.833874
          ],
          [
            -97.219399,
            32.834325
          ],
          [
            -97.220118,
            32.834659
          ],
          [
            -97.221982,
            32.835658
          ],
          [
            -97.226399,
            32.838119
          ],
          [
            -97.227587,
            32.838729
          ],
          [
            -97.228219,
            32.839008
          ],
          [
            -97.229044,
            32.839295
          ],
          [
            -97.230134,
            32.839636
          ],
          [
            -97.230856,
            32.839807
          ],
          [
            -97.231945,
            32.84003
          ],
          [
            -97.233433,
            32.840262
          ],
          [
            -97.234579,
            32.840382
          ],
          [
            -97.235235,
            32.840434
          ],
          [
            -97.23585,
            32.840469
          ],
          [
            -97.236563,
            32.84049
          ],
          [
            -97.236973,
            32.840492
          ],
          [
            -97.237627,
            32.840471
          ],
          [
            -97.239622,
            32.840448
          ],
          [
            -97.240567,
            32.840452
          ],
          [
            -97.244286,
            32.840396
          ],
          [
            -97.245701,
            32.840391
          ],
          [
            -97.246444,
            32.840399
          ],
          [
            -97.247688,
            32.840438
          ],
          [
            -97.252436,
            32.84051
          ],
          [
            -97.253754,
            32.840501
          ],
          [
            -97.254145,
            32.840494
          ],
          [
            -97.254166,
            32.840495
          ],
          [
            -97.255371,
            32.840428
          ],
          [
            -97.256447,
            32.840351
          ],
          [
            -97.259107,
            32.840121
          ],
          [
            -97.260557,
            32.839969
          ],
          [
            -97.261714,
            32.839858
          ],
          [
            -97.262706,
            32.839781
          ],
          [
            -97.263856,
            32.83972
          ],
          [
            -97.265596,
            32.839687
          ],
          [
            -97.273946,
            32.839706
          ],
          [
            -97.278673,
            32.839705
          ],
          [
            -97.279989,
            32.83977
          ],
          [
            -97.280871,
            32.839829
          ],
          [
            -97.281636,
            32.839853
          ],
          [
            -97.284914,
            32.83985
          ],
          [
            -97.286976,
            32.839764
          ],
          [
            -97.289394,
            32.839746
          ],
          [
            -97.289573,
            32.839742
          ],
          [
            -97.290152,
            32.839738
          ],
          [
            -97.291041,
            32.839738
          ],
          [
            -97.292389,
            32.839739
          ],
          [
            -97.293504,
            32.839717
          ],
          [
            -97.295209,
            32.839652
          ],
          [
            -97.296998,
            32.839609
          ],
          [
            -97.299458,
            32.839607
          ],
          [
            -97.299876,
            32.839616
          ],
          [
            -97.301198,
            32.839646
          ],
          [
            -97.301894,
            32.839646
          ],
          [
            -97.302991,
            32.839678
          ],
          [
            -97.305464,
            32.839816
          ],
          [
            -97.306161,
            32.83984
          ],
          [
            -97.307919,
            32.839857
          ],
          [
            -97.308399,
            32.839895
          ],
          [
            -97.308481,
            32.839898
          ],
          [
            -97.308775,
            32.839916
          ],
          [
            -97.309127,
            32.839959
          ],
          [
            -97.311224,
            32.840351
          ],
          [
            -97.31205,
            32.840444
          ],
          [
            -97.312576,
            32.840473
          ],
          [
            -97.312847,
            32.840474
          ],
          [
            -97.313544,
            32.840546
          ],
          [
            -97.31484,
            32.840833
          ],
          [
            -97.315195,
            32.840866
          ],
          [
            -97.315737,
            32.840822
          ],
          [
            -97.316092,
            32.840763
          ],
          [
            -97.316552,
            32.840655
          ],
          [
            -97.31756,
            32.840395
          ],
          [
            -97.318544,
            32.840287
          ],
          [
            -97.320295,
            32.840287
          ],
          [
            -97.320741,
            32.840286
          ],
          [
            -97.32106,
            32.840288
          ],
          [
            -97.321095,
            32.841812
          ],
          [
            -97.321087,
            32.843654
          ],
          [
            -97.321077,
            32.845288
          ],
          [
            -97.321092,
            32.846593
          ],
          [
            -97.321101,
            32.846852
          ],
          [
            -97.321164,
            32.847229
          ],
          [
            -97.321191,
            32.847419
          ],
          [
            -97.321181,
            32.847485
          ],
          [
            -97.321107,
            32.847612
          ],
          [
            -97.321074,
            32.847629
          ],
          [
            -97.320477,
            32.847729
          ],
          [
            -97.319663,
            32.84783
          ],
          [
            -97.31822,
            32.847824
          ],
          [
            -97.317459,
            32.847814
          ],
          [
            -97.31691,
            32.847808
          ],
          [
            -97.316286,
            32.847802
          ],
          [
            -97.316121,
            32.847819
          ],
          [
            -97.316035,
            32.847845
          ],
          [
            -97.31599,
            32.847889
          ],
          [
            -97.315952,
            32.847979
          ],
          [
            -97.315937,
            32.848135
          ],
          [
            -97.315936,
            32.848967
          ],
          [
            -97.315932,
            32.850678
          ],
          [
            -97.315931,
            32.851289
          ],
          [
            -97.315931,
            32.85139
          ],
          [
            -97.316459,
            32.851394
          ],
          [
            -97.316553,
            32.851395
          ]
        ]
      }
    }
  ]
}
