{
  "type": "FeatureCollection",
  "properties": {
    "dayNumber": 20,
    "title": "An Afternoon on the Rhine"
  },
  "features": [
    {
      "type": "Feature",
      "properties": {
        "mode": "drive",
        "fromStopIndex": 0,
        "toStopIndex": 2,
        "fromName": "Frankfurt",
        "toName": "Frankfurt",
        "waypointNames": [
          "Frankfurt",
          "Rhine Valley — Rüdesheim Area",
          "Frankfurt"
        ],
        "distanceMeters": 70118.7,
        "durationSeconds": 4466.799999999999
      },
      "geometry": {
        "type": "LineString",
        "coordinates": [
          [
            8.348785,
            50.063183
          ],
          [
            8.348971,
            50.063154
          ],
          [
            8.349066,
            50.063514
          ],
          [
            8.347894,
            50.063624
          ],
          [
            8.347572,
            50.06331
          ],
          [
            8.346144,
            50.061933
          ],
          [
            8.346017,
            50.061837
          ],
          [
            8.343808,
            50.060394
          ],
          [
            8.342741,
            50.059676
          ],
          [
            8.342584,
            50.059568
          ],
          [
            8.34243,
            50.059453
          ],
          [
            8.342165,
            50.059188
          ],
          [
            8.342085,
            50.059069
          ],
          [
            8.342031,
            50.058979
          ],
          [
            8.341995,
            50.05891
          ],
          [
            8.341894,
            50.058719
          ],
          [
            8.34174,
            50.058412
          ],
          [
            8.341703,
            50.058346
          ],
          [
            8.341436,
            50.057874
          ],
          [
            8.341174,
            50.05754
          ],
          [
            8.341036,
            50.057338
          ],
          [
            8.340849,
            50.057067
          ],
          [
            8.340804,
            50.057011
          ],
          [
            8.34062,
            50.056801
          ],
          [
            8.340378,
            50.056561
          ],
          [
            8.340244,
            50.056451
          ],
          [
            8.339936,
            50.056246
          ],
          [
            8.339676,
            50.056147
          ],
          [
            8.339392,
            50.056106
          ],
          [
            8.338552,
            50.056056
          ],
          [
            8.337561,
            50.05596
          ],
          [
            8.33638,
            50.055867
          ],
          [
            8.334559,
            50.05587
          ],
          [
            8.328614,
            50.05588
          ],
          [
            8.32591,
            50.055898
          ],
          [
            8.32378,
            50.055934
          ],
          [
            8.322476,
            50.055982
          ],
          [
            8.319376,
            50.05614
          ],
          [
            8.318662,
            50.05615
          ],
          [
            8.317885,
            50.056137
          ],
          [
            8.316954,
            50.056086
          ],
          [
            8.316127,
            50.056005
          ],
          [
            8.315456,
            50.055915
          ],
          [
            8.314773,
            50.055796
          ],
          [
            8.31405,
            50.055654
          ],
          [
            8.313395,
            50.055494
          ],
          [
            8.312654,
            50.055286
          ],
          [
            8.311817,
            50.055007
          ],
          [
            8.311296,
            50.054806
          ],
          [
            8.30901,
            50.053834
          ],
          [
            8.306733,
            50.052792
          ],
          [
            8.306226,
            50.052537
          ],
          [
            8.30403,
            50.051457
          ],
          [
            8.303612,
            50.051265
          ],
          [
            8.302868,
            50.050966
          ],
          [
            8.302225,
            50.050741
          ],
          [
            8.301492,
            50.050521
          ],
          [
            8.300702,
            50.050323
          ],
          [
            8.29986,
            50.050159
          ],
          [
            8.299438,
            50.05009
          ],
          [
            8.298801,
            50.050001
          ],
          [
            8.298119,
            50.049928
          ],
          [
            8.297468,
            50.049881
          ],
          [
            8.296542,
            50.049854
          ],
          [
            8.295815,
            50.049851
          ],
          [
            8.293792,
            50.04991
          ],
          [
            8.291042,
            50.050009
          ],
          [
            8.289917,
            50.050056
          ],
          [
            8.287658,
            50.050222
          ],
          [
            8.285664,
            50.050472
          ],
          [
            8.281121,
            50.051188
          ],
          [
            8.280817,
            50.051234
          ],
          [
            8.279736,
            50.051398
          ],
          [
            8.278493,
            50.051565
          ],
          [
            8.275534,
            50.051895
          ],
          [
            8.274161,
            50.052029
          ],
          [
            8.268382,
            50.052498
          ],
          [
            8.264294,
            50.052794
          ],
          [
            8.263052,
            50.052846
          ],
          [
            8.261749,
            50.052848
          ],
          [
            8.261001,
            50.052826
          ],
          [
            8.259766,
            50.052752
          ],
          [
            8.257291,
            50.052505
          ],
          [
            8.256427,
            50.052423
          ],
          [
            8.254695,
            50.052287
          ],
          [
            8.25284,
            50.05218
          ],
          [
            8.252246,
            50.052158
          ],
          [
            8.252045,
            50.052153
          ],
          [
            8.250515,
            50.052162
          ],
          [
            8.24846,
            50.052218
          ],
          [
            8.24689,
            50.052298
          ],
          [
            8.243139,
            50.052531
          ],
          [
            8.241679,
            50.052607
          ],
          [
            8.240782,
            50.052637
          ],
          [
            8.239909,
            50.052634
          ],
          [
            8.238724,
            50.052605
          ],
          [
            8.238192,
            50.052582
          ],
          [
            8.23748,
            50.052537
          ],
          [
            8.237074,
            50.052496
          ],
          [
            8.235748,
            50.052355
          ],
          [
            8.235383,
            50.052313
          ],
          [
            8.233659,
            50.052111
          ],
          [
            8.230962,
            50.05185
          ],
          [
            8.229799,
            50.051786
          ],
          [
            8.229087,
            50.051767
          ],
          [
            8.227418,
            50.051776
          ],
          [
            8.22537,
            50.051861
          ],
          [
            8.22372,
            50.051976
          ],
          [
            8.219731,
            50.052309
          ],
          [
            8.218266,
            50.052431
          ],
          [
            8.215434,
            50.052653
          ],
          [
            8.212289,
            50.052829
          ],
          [
            8.209817,
            50.052887
          ],
          [
            8.208229,
            50.05289
          ],
          [
            8.207023,
            50.052871
          ],
          [
            8.205367,
            50.052792
          ],
          [
            8.204109,
            50.052706
          ],
          [
            8.203195,
            50.052632
          ],
          [
            8.201873,
            50.052499
          ],
          [
            8.200734,
            50.052362
          ],
          [
            8.199708,
            50.052215
          ],
          [
            8.198674,
            50.052038
          ],
          [
            8.1973,
            50.051772
          ],
          [
            8.196913,
            50.051693
          ],
          [
            8.195379,
            50.051334
          ],
          [
            8.190864,
            50.050098
          ],
          [
            8.189421,
            50.049761
          ],
          [
            8.188484,
            50.049596
          ],
          [
            8.187994,
            50.049532
          ],
          [
            8.187008,
            50.049438
          ],
          [
            8.186082,
            50.049396
          ],
          [
            8.185563,
            50.049394
          ],
          [
            8.184538,
            50.049418
          ],
          [
            8.182841,
            50.049518
          ],
          [
            8.176802,
            50.04995
          ],
          [
            8.175705,
            50.049999
          ],
          [
            8.174279,
            50.050013
          ],
          [
            8.173101,
            50.049971
          ],
          [
            8.17232,
            50.049908
          ],
          [
            8.171403,
            50.049798
          ],
          [
            8.17018,
            50.0496
          ],
          [
            8.168168,
            50.049212
          ],
          [
            8.16701,
            50.048957
          ],
          [
            8.165048,
            50.04849
          ],
          [
            8.163322,
            50.048028
          ],
          [
            8.161739,
            50.047581
          ],
          [
            8.159904,
            50.047054
          ],
          [
            8.159615,
            50.046979
          ],
          [
            8.158862,
            50.046782
          ],
          [
            8.158094,
            50.04661
          ],
          [
            8.157313,
            50.046464
          ],
          [
            8.156521,
            50.046346
          ],
          [
            8.15584,
            50.046262
          ],
          [
            8.155217,
            50.046203
          ],
          [
            8.154333,
            50.046145
          ],
          [
            8.153537,
            50.046117
          ],
          [
            8.152609,
            50.046116
          ],
          [
            8.150525,
            50.046166
          ],
          [
            8.148691,
            50.046171
          ],
          [
            8.147785,
            50.046151
          ],
          [
            8.146173,
            50.046065
          ],
          [
            8.144534,
            50.045915
          ],
          [
            8.14302,
            50.04572
          ],
          [
            8.141318,
            50.045428
          ],
          [
            8.138696,
            50.044901
          ],
          [
            8.138017,
            50.044769
          ],
          [
            8.137208,
            50.044633
          ],
          [
            8.135974,
            50.04449
          ],
          [
            8.135142,
            50.044434
          ],
          [
            8.134307,
            50.044412
          ],
          [
            8.133053,
            50.044438
          ],
          [
            8.132331,
            50.044483
          ],
          [
            8.131487,
            50.04457
          ],
          [
            8.130496,
            50.044716
          ],
          [
            8.130162,
            50.044778
          ],
          [
            8.129426,
            50.044931
          ],
          [
            8.127732,
            50.04532
          ],
          [
            8.12683,
            50.045507
          ],
          [
            8.12634,
            50.045592
          ],
          [
            8.125844,
            50.045659
          ],
          [
            8.125342,
            50.045706
          ],
          [
            8.124837,
            50.045734
          ],
          [
            8.12433,
            50.045743
          ],
          [
            8.123823,
            50.045732
          ],
          [
            8.123318,
            50.045701
          ],
          [
            8.122817,
            50.045652
          ],
          [
            8.122321,
            50.045582
          ],
          [
            8.121833,
            50.045494
          ],
          [
            8.121354,
            50.045387
          ],
          [
            8.120886,
            50.045263
          ],
          [
            8.12043,
            50.04512
          ],
          [
            8.119988,
            50.04496
          ],
          [
            8.119233,
            50.044632
          ],
          [
            8.118536,
            50.044255
          ],
          [
            8.118047,
            50.043926
          ],
          [
            8.117498,
            50.043479
          ],
          [
            8.117194,
            50.043186
          ],
          [
            8.116775,
            50.042711
          ],
          [
            8.11642,
            50.042271
          ],
          [
            8.116086,
            50.041787
          ],
          [
            8.114838,
            50.039705
          ],
          [
            8.114335,
            50.039001
          ],
          [
            8.113984,
            50.03859
          ],
          [
            8.113603,
            50.038208
          ],
          [
            8.113116,
            50.037778
          ],
          [
            8.112675,
            50.037448
          ],
          [
            8.111844,
            50.036914
          ],
          [
            8.110856,
            50.036375
          ],
          [
            8.10977,
            50.03581
          ],
          [
            8.108907,
            50.035315
          ],
          [
            8.10821,
            50.034819
          ],
          [
            8.107989,
            50.034634
          ],
          [
            8.107583,
            50.03425
          ],
          [
            8.107278,
            50.033897
          ],
          [
            8.106983,
            50.033479
          ],
          [
            8.106817,
            50.033192
          ],
          [
            8.106577,
            50.032655
          ],
          [
            8.106415,
            50.032077
          ],
          [
            8.106349,
            50.031492
          ],
          [
            8.106389,
            50.030832
          ],
          [
            8.106443,
            50.030497
          ],
          [
            8.106612,
            50.029805
          ],
          [
            8.10748,
            50.026297
          ],
          [
            8.107804,
            50.024906
          ],
          [
            8.107842,
            50.024588
          ],
          [
            8.107861,
            50.024046
          ],
          [
            8.107821,
            50.023729
          ],
          [
            8.107743,
            50.023424
          ],
          [
            8.10753,
            50.022921
          ],
          [
            8.107257,
            50.022477
          ],
          [
            8.106918,
            50.022067
          ],
          [
            8.10674,
            50.021891
          ],
          [
            8.106314,
            50.021541
          ],
          [
            8.105776,
            50.021197
          ],
          [
            8.105532,
            50.021066
          ],
          [
            8.104979,
            50.020815
          ],
          [
            8.10469,
            50.020703
          ],
          [
            8.104191,
            50.020541
          ],
          [
            8.103094,
            50.020263
          ],
          [
            8.099146,
            50.019347
          ],
          [
            8.097805,
            50.019058
          ],
          [
            8.09688,
            50.018857
          ],
          [
            8.096512,
            50.018782
          ],
          [
            8.096075,
            50.018692
          ],
          [
            8.094679,
            50.018393
          ],
          [
            8.093735,
            50.018217
          ],
          [
            8.09261,
            50.018071
          ],
          [
            8.092108,
            50.018028
          ],
          [
            8.091542,
            50.017995
          ],
          [
            8.087772,
            50.017896
          ],
          [
            8.082513,
            50.017598
          ],
          [
            8.081879,
            50.017576
          ],
          [
            8.081261,
            50.01757
          ],
          [
            8.080598,
            50.017583
          ],
          [
            8.079919,
            50.017616
          ],
          [
            8.078173,
            50.017742
          ],
          [
            8.077657,
            50.017766
          ],
          [
            8.07718,
            50.017778
          ],
          [
            8.076477,
            50.017771
          ],
          [
            8.075705,
            50.017712
          ],
          [
            8.075057,
            50.017628
          ],
          [
            8.074374,
            50.017503
          ],
          [
            8.07402,
            50.017419
          ],
          [
            8.0736,
            50.017297
          ],
          [
            8.072311,
            50.016838
          ],
          [
            8.071745,
            50.016625
          ],
          [
            8.071598,
            50.016569
          ],
          [
            8.071119,
            50.016393
          ],
          [
            8.070847,
            50.016293
          ],
          [
            8.069538,
            50.015797
          ],
          [
            8.064591,
            50.013917
          ],
          [
            8.063496,
            50.013511
          ],
          [
            8.062594,
            50.013169
          ],
          [
            8.062258,
            50.013045
          ],
          [
            8.061928,
            50.012936
          ],
          [
            8.061312,
            50.012766
          ],
          [
            8.061159,
            50.01273
          ],
          [
            8.060753,
            50.012639
          ],
          [
            8.059942,
            50.012493
          ],
          [
            8.059083,
            50.012396
          ],
          [
            8.055897,
            50.012184
          ],
          [
            8.054868,
            50.012085
          ],
          [
            8.053725,
            50.011926
          ],
          [
            8.051466,
            50.011537
          ],
          [
            8.049876,
            50.011258
          ],
          [
            8.049337,
            50.011163
          ],
          [
            8.047685,
            50.010873
          ],
          [
            8.047361,
            50.010811
          ],
          [
            8.046818,
            50.010691
          ],
          [
            8.046231,
            50.010542
          ],
          [
            8.045716,
            50.010386
          ],
          [
            8.044636,
            50.010021
          ],
          [
            8.04346,
            50.00953
          ],
          [
            8.042537,
            50.009091
          ],
          [
            8.039701,
            50.007693
          ],
          [
            8.038622,
            50.007188
          ],
          [
            8.036398,
            50.006261
          ],
          [
            8.034952,
            50.005686
          ],
          [
            8.033516,
            50.005076
          ],
          [
            8.033061,
            50.00484
          ],
          [
            8.032231,
            50.004357
          ],
          [
            8.032084,
            50.004271
          ],
          [
            8.030829,
            50.003512
          ],
          [
            8.030465,
            50.003319
          ],
          [
            8.030089,
            50.003145
          ],
          [
            8.029591,
            50.002942
          ],
          [
            8.028964,
            50.002734
          ],
          [
            8.028227,
            50.002564
          ],
          [
            8.027787,
            50.002484
          ],
          [
            8.026793,
            50.002359
          ],
          [
            8.025878,
            50.002228
          ],
          [
            8.024105,
            50.001895
          ],
          [
            8.021698,
            50.001419
          ],
          [
            8.020675,
            50.001221
          ],
          [
            8.020083,
            50.001091
          ],
          [
            8.019666,
            50.000994
          ],
          [
            8.01867,
            50.000741
          ],
          [
            8.018323,
            50.000644
          ],
          [
            8.017692,
            50.000461
          ],
          [
            8.016604,
            50.000115
          ],
          [
            8.015347,
            49.999708
          ],
          [
            8.014084,
            49.99924
          ],
          [
            8.013043,
            49.998783
          ],
          [
            8.012064,
            49.998313
          ],
          [
            8.011414,
            49.998002
          ],
          [
            8.010466,
            49.997623
          ],
          [
            8.010332,
            49.997577
          ],
          [
            8.009271,
            49.99722
          ],
          [
            8.008626,
            49.997008
          ],
          [
            8.007669,
            49.996655
          ],
          [
            8.006942,
            49.996339
          ],
          [
            8.006403,
            49.996064
          ],
          [
            8.005886,
            49.995772
          ],
          [
            8.005357,
            49.99544
          ],
          [
            8.004724,
            49.994995
          ],
          [
            8.004677,
            49.994963
          ],
          [
            8.002702,
            49.993566
          ],
          [
            8.00226,
            49.993202
          ],
          [
            8.002052,
            49.992983
          ],
          [
            8.001908,
            49.992817
          ],
          [
            8.00167,
            49.992524
          ],
          [
            8.001139,
            49.99188
          ],
          [
            8.000844,
            49.991558
          ],
          [
            8.000623,
            49.991361
          ],
          [
            8.000124,
            49.990998
          ],
          [
            7.999801,
            49.990807
          ],
          [
            7.999456,
            49.990632
          ],
          [
            7.99909,
            49.990475
          ],
          [
            7.998707,
            49.990336
          ],
          [
            7.998308,
            49.990216
          ],
          [
            7.997895,
            49.990117
          ],
          [
            7.997473,
            49.990039
          ],
          [
            7.989394,
            49.988979
          ],
          [
            7.987909,
            49.98873
          ],
          [
            7.98645,
            49.988424
          ],
          [
            7.985245,
            49.988117
          ],
          [
            7.985175,
            49.9881
          ],
          [
            7.984745,
            49.987989
          ],
          [
            7.98452,
            49.987928
          ],
          [
            7.979732,
            49.986598
          ],
          [
            7.978854,
            49.986324
          ],
          [
            7.977046,
            49.985658
          ],
          [
            7.974037,
            49.984366
          ],
          [
            7.973287,
            49.984028
          ],
          [
            7.972975,
            49.983876
          ],
          [
            7.97277,
            49.983779
          ],
          [
            7.972412,
            49.983595
          ],
          [
            7.971916,
            49.983305
          ],
          [
            7.971496,
            49.982984
          ],
          [
            7.970792,
            49.982342
          ],
          [
            7.969784,
            49.981404
          ],
          [
            7.969505,
            49.981182
          ],
          [
            7.969202,
            49.980988
          ],
          [
            7.968776,
            49.980754
          ],
          [
            7.968265,
            49.980513
          ],
          [
            7.967463,
            49.980241
          ],
          [
            7.967177,
            49.980178
          ],
          [
            7.966752,
            49.980111
          ],
          [
            7.96627,
            49.980062
          ],
          [
            7.965921,
            49.980047
          ],
          [
            7.963826,
            49.980123
          ],
          [
            7.962738,
            49.980143
          ],
          [
            7.96114,
            49.980122
          ],
          [
            7.960296,
            49.980119
          ],
          [
            7.958107,
            49.980082
          ],
          [
            7.955425,
            49.980037
          ],
          [
            7.954451,
            49.980027
          ],
          [
            7.951146,
            49.980101
          ],
          [
            7.950367,
            49.980134
          ],
          [
            7.949701,
            49.980171
          ],
          [
            7.94815,
            49.980298
          ],
          [
            7.947605,
            49.98033
          ],
          [
            7.947227,
            49.980313
          ],
          [
            7.945816,
            49.980142
          ],
          [
            7.945285,
            49.980107
          ],
          [
            7.944989,
            49.980115
          ],
          [
            7.944465,
            49.980175
          ],
          [
            7.943998,
            49.980294
          ],
          [
            7.943711,
            49.980393
          ],
          [
            7.943303,
            49.980591
          ],
          [
            7.943194,
            49.980646
          ],
          [
            7.94173,
            49.981444
          ],
          [
            7.94152,
            49.981544
          ],
          [
            7.941315,
            49.981637
          ],
          [
            7.941399,
            49.981712
          ],
          [
            7.941416,
            49.981783
          ],
          [
            7.941388,
            49.981853
          ],
          [
            7.941319,
            49.981911
          ],
          [
            7.941273,
            49.981932
          ],
          [
            7.941095,
            49.981953
          ],
          [
            7.941002,
            49.981933
          ],
          [
            7.940918,
            49.981888
          ],
          [
            7.940868,
            49.981828
          ],
          [
            7.940857,
            49.98178
          ],
          [
            7.940371,
            49.981791
          ],
          [
            7.93989,
            49.981765
          ],
          [
            7.939425,
            49.981703
          ],
          [
            7.938923,
            49.98163
          ],
          [
            7.938088,
            49.981509
          ],
          [
            7.937351,
            49.981373
          ],
          [
            7.935804,
            49.980996
          ],
          [
            7.935043,
            49.980791
          ],
          [
            7.933708,
            49.980426
          ],
          [
            7.931991,
            49.979958
          ],
          [
            7.931911,
            49.979939
          ],
          [
            7.931117,
            49.97972
          ],
          [
            7.930807,
            49.97964
          ],
          [
            7.930512,
            49.979577
          ],
          [
            7.930361,
            49.979545
          ],
          [
            7.930108,
            49.979497
          ],
          [
            7.929641,
            49.979405
          ],
          [
            7.929057,
            49.979286
          ],
          [
            7.928707,
            49.979217
          ],
          [
            7.928585,
            49.979197
          ],
          [
            7.92768,
            49.97911
          ],
          [
            7.927578,
            49.979102
          ],
          [
            7.926798,
            49.979033
          ],
          [
            7.926318,
            49.97897
          ],
          [
            7.925607,
            49.97877
          ],
          [
            7.925006,
            49.978623
          ],
          [
            7.924729,
            49.978413
          ],
          [
            7.92454,
            49.978318
          ],
          [
            7.924729,
            49.978413
          ],
          [
            7.925006,
            49.978623
          ],
          [
            7.925098,
            49.978533
          ],
          [
            7.925188,
            49.978384
          ],
          [
            7.925274,
            49.978163
          ],
          [
            7.92531,
            49.978004
          ],
          [
            7.925386,
            49.977864
          ],
          [
            7.925669,
            49.978026
          ],
          [
            7.925904,
            49.9781
          ],
          [
            7.926043,
            49.978127
          ],
          [
            7.926484,
            49.978167
          ],
          [
            7.926591,
            49.978171
          ],
          [
            7.926787,
            49.978171
          ],
          [
            7.926893,
            49.97818
          ],
          [
            7.927563,
            49.978198
          ],
          [
            7.92868,
            49.978249
          ],
          [
            7.928882,
            49.978287
          ],
          [
            7.9289,
            49.97829
          ],
          [
            7.929346,
            49.978404
          ],
          [
            7.929587,
            49.978485
          ],
          [
            7.9299,
            49.978628
          ],
          [
            7.930492,
            49.978928
          ],
          [
            7.93056,
            49.979007
          ],
          [
            7.930578,
            49.979048
          ],
          [
            7.93057,
            49.979128
          ],
          [
            7.930397,
            49.979409
          ],
          [
            7.930421,
            49.979503
          ],
          [
            7.930512,
            49.979577
          ],
          [
            7.930807,
            49.97964
          ],
          [
            7.931117,
            49.97972
          ],
          [
            7.931911,
            49.979939
          ],
          [
            7.931991,
            49.979958
          ],
          [
            7.933708,
            49.980426
          ],
          [
            7.935043,
            49.980791
          ],
          [
            7.935804,
            49.980996
          ],
          [
            7.937351,
            49.981373
          ],
          [
            7.938088,
            49.981509
          ],
          [
            7.938923,
            49.98163
          ],
          [
            7.939425,
            49.981703
          ],
          [
            7.93989,
            49.981765
          ],
          [
            7.940371,
            49.981791
          ],
          [
            7.940857,
            49.98178
          ],
          [
            7.940866,
            49.981726
          ],
          [
            7.940913,
            49.981665
          ],
          [
            7.940991,
            49.98162
          ],
          [
            7.941071,
            49.9816
          ],
          [
            7.941197,
            49.981598
          ],
          [
            7.941315,
            49.981637
          ],
          [
            7.94152,
            49.981544
          ],
          [
            7.94173,
            49.981444
          ],
          [
            7.943194,
            49.980646
          ],
          [
            7.943303,
            49.980591
          ],
          [
            7.943711,
            49.980393
          ],
          [
            7.943998,
            49.980294
          ],
          [
            7.944465,
            49.980175
          ],
          [
            7.944989,
            49.980115
          ],
          [
            7.945285,
            49.980107
          ],
          [
            7.945816,
            49.980142
          ],
          [
            7.947227,
            49.980313
          ],
          [
            7.947605,
            49.98033
          ],
          [
            7.94815,
            49.980298
          ],
          [
            7.949701,
            49.980171
          ],
          [
            7.950367,
            49.980134
          ],
          [
            7.951146,
            49.980101
          ],
          [
            7.954451,
            49.980027
          ],
          [
            7.955425,
            49.980037
          ],
          [
            7.958107,
            49.980082
          ],
          [
            7.960296,
            49.980119
          ],
          [
            7.96114,
            49.980122
          ],
          [
            7.962738,
            49.980143
          ],
          [
            7.963826,
            49.980123
          ],
          [
            7.965921,
            49.980047
          ],
          [
            7.96627,
            49.980062
          ],
          [
            7.966752,
            49.980111
          ],
          [
            7.967177,
            49.980178
          ],
          [
            7.967463,
            49.980241
          ],
          [
            7.968265,
            49.980513
          ],
          [
            7.968776,
            49.980754
          ],
          [
            7.969202,
            49.980988
          ],
          [
            7.969505,
            49.981182
          ],
          [
            7.969784,
            49.981404
          ],
          [
            7.970792,
            49.982342
          ],
          [
            7.971496,
            49.982984
          ],
          [
            7.971916,
            49.983305
          ],
          [
            7.972412,
            49.983595
          ],
          [
            7.97277,
            49.983779
          ],
          [
            7.972975,
            49.983876
          ],
          [
            7.973287,
            49.984028
          ],
          [
            7.974037,
            49.984366
          ],
          [
            7.977046,
            49.985658
          ],
          [
            7.978854,
            49.986324
          ],
          [
            7.979732,
            49.986598
          ],
          [
            7.98452,
            49.987928
          ],
          [
            7.984745,
            49.987989
          ],
          [
            7.985175,
            49.9881
          ],
          [
            7.985245,
            49.988117
          ],
          [
            7.98645,
            49.988424
          ],
          [
            7.987909,
            49.98873
          ],
          [
            7.989394,
            49.988979
          ],
          [
            7.997473,
            49.990039
          ],
          [
            7.997895,
            49.990117
          ],
          [
            7.998308,
            49.990216
          ],
          [
            7.998707,
            49.990336
          ],
          [
            7.99909,
            49.990475
          ],
          [
            7.999456,
            49.990632
          ],
          [
            7.999801,
            49.990807
          ],
          [
            8.000124,
            49.990998
          ],
          [
            8.000623,
            49.991361
          ],
          [
            8.000844,
            49.991558
          ],
          [
            8.001139,
            49.99188
          ],
          [
            8.00167,
            49.992524
          ],
          [
            8.001908,
            49.992817
          ],
          [
            8.002052,
            49.992983
          ],
          [
            8.00226,
            49.993202
          ],
          [
            8.002702,
            49.993566
          ],
          [
            8.004677,
            49.994963
          ],
          [
            8.004724,
            49.994995
          ],
          [
            8.005357,
            49.99544
          ],
          [
            8.005886,
            49.995772
          ],
          [
            8.006403,
            49.996064
          ],
          [
            8.006942,
            49.996339
          ],
          [
            8.007669,
            49.996655
          ],
          [
            8.008626,
            49.997008
          ],
          [
            8.009271,
            49.99722
          ],
          [
            8.010332,
            49.997577
          ],
          [
            8.010466,
            49.997623
          ],
          [
            8.011414,
            49.998002
          ],
          [
            8.012064,
            49.998313
          ],
          [
            8.013043,
            49.998783
          ],
          [
            8.014084,
            49.99924
          ],
          [
            8.015347,
            49.999708
          ],
          [
            8.016604,
            50.000115
          ],
          [
            8.017692,
            50.000461
          ],
          [
            8.018323,
            50.000644
          ],
          [
            8.01867,
            50.000741
          ],
          [
            8.019666,
            50.000994
          ],
          [
            8.020083,
            50.001091
          ],
          [
            8.020675,
            50.001221
          ],
          [
            8.021698,
            50.001419
          ],
          [
            8.024105,
            50.001895
          ],
          [
            8.025878,
            50.002228
          ],
          [
            8.026793,
            50.002359
          ],
          [
            8.027787,
            50.002484
          ],
          [
            8.028227,
            50.002564
          ],
          [
            8.028964,
            50.002734
          ],
          [
            8.029591,
            50.002942
          ],
          [
            8.030089,
            50.003145
          ],
          [
            8.030465,
            50.003319
          ],
          [
            8.030829,
            50.003512
          ],
          [
            8.032084,
            50.004271
          ],
          [
            8.032231,
            50.004357
          ],
          [
            8.033061,
            50.00484
          ],
          [
            8.033516,
            50.005076
          ],
          [
            8.034952,
            50.005686
          ],
          [
            8.036398,
            50.006261
          ],
          [
            8.038622,
            50.007188
          ],
          [
            8.039701,
            50.007693
          ],
          [
            8.042537,
            50.009091
          ],
          [
            8.04346,
            50.00953
          ],
          [
            8.044636,
            50.010021
          ],
          [
            8.045716,
            50.010386
          ],
          [
            8.046231,
            50.010542
          ],
          [
            8.046818,
            50.010691
          ],
          [
            8.047361,
            50.010811
          ],
          [
            8.047685,
            50.010873
          ],
          [
            8.049337,
            50.011163
          ],
          [
            8.049876,
            50.011258
          ],
          [
            8.051466,
            50.011537
          ],
          [
            8.053725,
            50.011926
          ],
          [
            8.054868,
            50.012085
          ],
          [
            8.055897,
            50.012184
          ],
          [
            8.059083,
            50.012396
          ],
          [
            8.059942,
            50.012493
          ],
          [
            8.060753,
            50.012639
          ],
          [
            8.061159,
            50.01273
          ],
          [
            8.061312,
            50.012766
          ],
          [
            8.061928,
            50.012936
          ],
          [
            8.062258,
            50.013045
          ],
          [
            8.062594,
            50.013169
          ],
          [
            8.063496,
            50.013511
          ],
          [
            8.064591,
            50.013917
          ],
          [
            8.069538,
            50.015797
          ],
          [
            8.070847,
            50.016293
          ],
          [
            8.071119,
            50.016393
          ],
          [
            8.071598,
            50.016569
          ],
          [
            8.071745,
            50.016625
          ],
          [
            8.072311,
            50.016838
          ],
          [
            8.0736,
            50.017297
          ],
          [
            8.07402,
            50.017419
          ],
          [
            8.074374,
            50.017503
          ],
          [
            8.075057,
            50.017628
          ],
          [
            8.075705,
            50.017712
          ],
          [
            8.076477,
            50.017771
          ],
          [
            8.07718,
            50.017778
          ],
          [
            8.077657,
            50.017766
          ],
          [
            8.078173,
            50.017742
          ],
          [
            8.079919,
            50.017616
          ],
          [
            8.080598,
            50.017583
          ],
          [
            8.081261,
            50.01757
          ],
          [
            8.081879,
            50.017576
          ],
          [
            8.082513,
            50.017598
          ],
          [
            8.087772,
            50.017896
          ],
          [
            8.091542,
            50.017995
          ],
          [
            8.092108,
            50.018028
          ],
          [
            8.09261,
            50.018071
          ],
          [
            8.093735,
            50.018217
          ],
          [
            8.094679,
            50.018393
          ],
          [
            8.096075,
            50.018692
          ],
          [
            8.096512,
            50.018782
          ],
          [
            8.09688,
            50.018857
          ],
          [
            8.097805,
            50.019058
          ],
          [
            8.099146,
            50.019347
          ],
          [
            8.100976,
            50.019685
          ],
          [
            8.103146,
            50.020175
          ],
          [
            8.103898,
            50.020363
          ],
          [
            8.104513,
            50.020543
          ],
          [
            8.105048,
            50.020737
          ],
          [
            8.10538,
            50.020884
          ],
          [
            8.105619,
            50.020995
          ],
          [
            8.105883,
            50.021141
          ],
          [
            8.106414,
            50.021485
          ],
          [
            8.106863,
            50.021849
          ],
          [
            8.107052,
            50.022029
          ],
          [
            8.107395,
            50.022438
          ],
          [
            8.107683,
            50.0229
          ],
          [
            8.107876,
            50.023355
          ],
          [
            8.107997,
            50.023887
          ],
          [
            8.108007,
            50.024436
          ],
          [
            8.107943,
            50.024917
          ],
          [
            8.107869,
            50.02526
          ],
          [
            8.107501,
            50.026764
          ],
          [
            8.106971,
            50.028943
          ],
          [
            8.106673,
            50.030164
          ],
          [
            8.106533,
            50.030834
          ],
          [
            8.106492,
            50.031196
          ],
          [
            8.106502,
            50.031739
          ],
          [
            8.106556,
            50.0321
          ],
          [
            8.106708,
            50.032635
          ],
          [
            8.106884,
            50.033045
          ],
          [
            8.10711,
            50.033444
          ],
          [
            8.107385,
            50.033831
          ],
          [
            8.107706,
            50.034202
          ],
          [
            8.108265,
            50.034719
          ],
          [
            8.108728,
            50.035069
          ],
          [
            8.108976,
            50.035234
          ],
          [
            8.109502,
            50.035544
          ],
          [
            8.111319,
            50.036503
          ],
          [
            8.111932,
            50.03685
          ],
          [
            8.112778,
            50.037385
          ],
          [
            8.113225,
            50.037729
          ],
          [
            8.113709,
            50.038147
          ],
          [
            8.113928,
            50.038358
          ],
          [
            8.114452,
            50.038959
          ],
          [
            8.114968,
            50.039673
          ],
          [
            8.116213,
            50.041757
          ],
          [
            8.11655,
            50.042241
          ],
          [
            8.116893,
            50.042667
          ],
          [
            8.117315,
            50.043144
          ],
          [
            8.117589,
            50.043413
          ],
          [
            8.118045,
            50.043795
          ],
          [
            8.118514,
            50.044119
          ],
          [
            8.118935,
            50.044366
          ],
          [
            8.119301,
            50.044556
          ],
          [
            8.11973,
            50.044752
          ],
          [
            8.120148,
            50.04492
          ],
          [
            8.120582,
            50.045072
          ],
          [
            8.121028,
            50.045207
          ],
          [
            8.121486,
            50.045326
          ],
          [
            8.121954,
            50.045426
          ],
          [
            8.122431,
            50.045509
          ],
          [
            8.122914,
            50.045574
          ],
          [
            8.123402,
            50.04562
          ],
          [
            8.123894,
            50.045648
          ],
          [
            8.124387,
            50.045657
          ],
          [
            8.124881,
            50.045648
          ],
          [
            8.125372,
            50.04562
          ],
          [
            8.125861,
            50.045573
          ],
          [
            8.126344,
            50.045508
          ],
          [
            8.12682,
            50.045425
          ],
          [
            8.128214,
            50.045117
          ],
          [
            8.130121,
            50.044694
          ],
          [
            8.130688,
            50.044592
          ],
          [
            8.131623,
            50.044466
          ],
          [
            8.132095,
            50.044418
          ],
          [
            8.133045,
            50.044354
          ],
          [
            8.134308,
            50.044326
          ],
          [
            8.135152,
            50.044349
          ],
          [
            8.135991,
            50.044405
          ],
          [
            8.137237,
            50.04455
          ],
          [
            8.138054,
            50.044687
          ],
          [
            8.138735,
            50.04482
          ],
          [
            8.141364,
            50.045344
          ],
          [
            8.142306,
            50.045509
          ],
          [
            8.143071,
            50.045627
          ],
          [
            8.144587,
            50.045829
          ],
          [
            8.145699,
            50.045939
          ],
          [
            8.146735,
            50.046013
          ],
          [
            8.147796,
            50.046062
          ],
          [
            8.148687,
            50.046081
          ],
          [
            8.149619,
            50.046089
          ],
          [
            8.150928,
            50.046067
          ],
          [
            8.153187,
            50.046029
          ],
          [
            8.154346,
            50.046059
          ],
          [
            8.155192,
            50.046113
          ],
          [
            8.155816,
            50.04617
          ],
          [
            8.156623,
            50.046268
          ],
          [
            8.157818,
            50.046462
          ],
          [
            8.158757,
            50.046659
          ],
          [
            8.159675,
            50.046893
          ],
          [
            8.160008,
            50.046983
          ],
          [
            8.163377,
            50.04795
          ],
          [
            8.165108,
            50.048396
          ],
          [
            8.167063,
            50.048859
          ],
          [
            8.169034,
            50.049279
          ],
          [
            8.170987,
            50.049628
          ],
          [
            8.172159,
            50.049785
          ],
          [
            8.172868,
            50.049849
          ],
          [
            8.173466,
            50.049882
          ],
          [
            8.174585,
            50.04991
          ],
          [
            8.175704,
            50.049891
          ],
          [
            8.176303,
            50.049872
          ],
          [
            8.177498,
            50.049803
          ],
          [
            8.180279,
            50.049605
          ],
          [
            8.183369,
            50.049377
          ],
          [
            8.185067,
            50.049296
          ],
          [
            8.185565,
            50.049291
          ],
          [
            8.18656,
            50.049309
          ],
          [
            8.187034,
            50.049334
          ],
          [
            8.188033,
            50.049431
          ],
          [
            8.18853,
            50.049499
          ],
          [
            8.189478,
            50.049664
          ],
          [
            8.190434,
            50.049878
          ],
          [
            8.191781,
            50.050227
          ],
          [
            8.195465,
            50.051222
          ],
          [
            8.196919,
            50.05157
          ],
          [
            8.197288,
            50.051647
          ],
          [
            8.198709,
            50.051936
          ],
          [
            8.199746,
            50.052109
          ],
          [
            8.200776,
            50.052257
          ],
          [
            8.2019,
            50.052397
          ],
          [
            8.203212,
            50.052528
          ],
          [
            8.204135,
            50.052605
          ],
          [
            8.205377,
            50.05269
          ],
          [
            8.206621,
            50.052749
          ],
          [
            8.208075,
            50.052781
          ],
          [
            8.20994,
            50.052784
          ],
          [
            8.21228,
            50.052722
          ],
          [
            8.213861,
            50.052644
          ],
          [
            8.215628,
            50.052534
          ],
          [
            8.216664,
            50.052454
          ],
          [
            8.217791,
            50.052367
          ],
          [
            8.222739,
            50.051956
          ],
          [
            8.22534,
            50.051758
          ],
          [
            8.226056,
            50.051725
          ],
          [
            8.228128,
            50.051653
          ],
          [
            8.229109,
            50.051654
          ],
          [
            8.230819,
            50.051725
          ],
          [
            8.232367,
            50.05185
          ],
          [
            8.23543,
            50.052201
          ],
          [
            8.235807,
            50.052246
          ],
          [
            8.237132,
            50.052389
          ],
          [
            8.237542,
            50.052428
          ],
          [
            8.238259,
            50.052476
          ],
          [
            8.238808,
            50.052507
          ],
          [
            8.239933,
            50.052525
          ],
          [
            8.240874,
            50.052522
          ],
          [
            8.242459,
            50.052456
          ],
          [
            8.243283,
            50.052407
          ],
          [
            8.246664,
            50.052201
          ],
          [
            8.24845,
            50.052095
          ],
          [
            8.249574,
            50.052045
          ],
          [
            8.25099,
            50.052012
          ],
          [
            8.252088,
            50.052012
          ],
          [
            8.252287,
            50.052014
          ],
          [
            8.252905,
            50.052027
          ],
          [
            8.254808,
            50.052118
          ],
          [
            8.256029,
            50.052209
          ],
          [
            8.257245,
            50.052324
          ],
          [
            8.259635,
            50.05258
          ],
          [
            8.260941,
            50.052686
          ],
          [
            8.262492,
            50.052733
          ],
          [
            8.263242,
            50.052723
          ],
          [
            8.264281,
            50.052685
          ],
          [
            8.265339,
            50.052622
          ],
          [
            8.272157,
            50.052091
          ],
          [
            8.275515,
            50.051795
          ],
          [
            8.276816,
            50.051655
          ],
          [
            8.278446,
            50.051459
          ],
          [
            8.280806,
            50.051136
          ],
          [
            8.281125,
            50.051087
          ],
          [
            8.285745,
            50.050355
          ],
          [
            8.287318,
            50.050159
          ],
          [
            8.288445,
            50.050054
          ],
          [
            8.28993,
            50.049951
          ],
          [
            8.294856,
            50.049762
          ],
          [
            8.295816,
            50.049743
          ],
          [
            8.29695,
            50.049753
          ],
          [
            8.298149,
            50.049809
          ],
          [
            8.299469,
            50.049953
          ],
          [
            8.299951,
            50.050027
          ],
          [
            8.300806,
            50.050197
          ],
          [
            8.301611,
            50.050398
          ],
          [
            8.302336,
            50.050617
          ],
          [
            8.30299,
            50.050847
          ],
          [
            8.303754,
            50.05116
          ],
          [
            8.304233,
            50.051382
          ],
          [
            8.306342,
            50.052421
          ],
          [
            8.306872,
            50.052683
          ],
          [
            8.308298,
            50.053351
          ],
          [
            8.308722,
            50.05355
          ],
          [
            8.310355,
            50.054246
          ],
          [
            8.311415,
            50.054695
          ],
          [
            8.311921,
            50.054882
          ],
          [
            8.312743,
            50.055153
          ],
          [
            8.313465,
            50.055361
          ],
          [
            8.314118,
            50.05552
          ],
          [
            8.314863,
            50.055668
          ],
          [
            8.315508,
            50.055778
          ],
          [
            8.316976,
            50.055954
          ],
          [
            8.31789,
            50.055997
          ],
          [
            8.318662,
            50.056013
          ],
          [
            8.319365,
            50.056002
          ],
          [
            8.322471,
            50.05584
          ],
          [
            8.323764,
            50.055791
          ],
          [
            8.325942,
            50.05574
          ],
          [
            8.334563,
            50.055728
          ],
          [
            8.336987,
            50.055713
          ],
          [
            8.338105,
            50.055586
          ],
          [
            8.338506,
            50.055537
          ],
          [
            8.339071,
            50.055508
          ],
          [
            8.339629,
            50.055524
          ],
          [
            8.340346,
            50.055582
          ],
          [
            8.34104,
            50.055577
          ],
          [
            8.34121,
            50.055542
          ],
          [
            8.341358,
            50.055477
          ],
          [
            8.341471,
            50.055388
          ],
          [
            8.341539,
            50.055281
          ],
          [
            8.341557,
            50.055167
          ],
          [
            8.341522,
            50.055054
          ],
          [
            8.341436,
            50.05495
          ],
          [
            8.341374,
            50.054904
          ],
          [
            8.34122,
            50.054833
          ],
          [
            8.341133,
            50.05481
          ],
          [
            8.340848,
            50.054789
          ],
          [
            8.340563,
            50.054854
          ],
          [
            8.340308,
            50.054957
          ],
          [
            8.340095,
            50.055094
          ],
          [
            8.340008,
            50.055174
          ],
          [
            8.339877,
            50.055348
          ],
          [
            8.339805,
            50.05557
          ],
          [
            8.339809,
            50.055722
          ],
          [
            8.33989,
            50.055942
          ],
          [
            8.339993,
            50.056079
          ],
          [
            8.340511,
            50.056545
          ],
          [
            8.340999,
            50.05704
          ],
          [
            8.341049,
            50.057113
          ],
          [
            8.34116,
            50.057254
          ],
          [
            8.341269,
            50.057475
          ],
          [
            8.341436,
            50.057874
          ],
          [
            8.341703,
            50.058346
          ],
          [
            8.34174,
            50.058412
          ],
          [
            8.341894,
            50.058719
          ],
          [
            8.341995,
            50.05891
          ],
          [
            8.342031,
            50.058979
          ],
          [
            8.342085,
            50.059069
          ],
          [
            8.342165,
            50.059188
          ],
          [
            8.34243,
            50.059453
          ],
          [
            8.342584,
            50.059568
          ],
          [
            8.342741,
            50.059676
          ],
          [
            8.343808,
            50.060394
          ],
          [
            8.346017,
            50.061837
          ],
          [
            8.346144,
            50.061933
          ],
          [
            8.347572,
            50.06331
          ],
          [
            8.347894,
            50.063624
          ],
          [
            8.349066,
            50.063514
          ],
          [
            8.348971,
            50.063154
          ],
          [
            8.348785,
            50.063183
          ]
        ]
      }
    }
  ]
}
